
# Worst residual: 4.57 km
# MJD 59783.000000 (2022 Jul 23  0:00)
1969-046D = NORAD 03954 = Vela 5a
1 03954U 69046D   22204.49919926  .00000000  00000-0  00000-0 0 14520
2 03954 064.9159 072.5292 8241342 138.0516 218.4018 00.21515631    00

# Worst residual: 17.75 km
# MJD 59784.000000 (2022 Jul 24  0:00)
1969-046D = NORAD 03954 = Vela 5a
1 03954U 69046D   22205.49919926  .00000000  00000-0  00000-0 0 14521
2 03954 064.9838 072.4612 8237311 138.0663 295.8684 00.21526840    05

# Worst residual: 26.73 km
# MJD 59785.000000 (2022 Jul 25  0:00)
1969-046D = NORAD 03954 = Vela 5a
1 03954U 69046D   22206.49919926  .00000000  00000-0  00000-0 0 14522
2 03954 065.0593 072.3965 8225567 137.9853 013.3843 00.21553319    05

# Worst residual: 4.00 km
# MJD 59786.000000 (2022 Jul 26  0:00)
1969-046D = NORAD 03954 = Vela 5a
1 03954U 69046D   22207.49919926  .00000000  00000-0  00000-0 0 14523
2 03954 065.1197 072.3376 8229217 137.9973 090.7430 00.21490237    01

# Worst residual: 6.15 km
# MJD 59787.000000 (2022 Jul 27  0:00)
1969-046D = NORAD 03954 = Vela 5a
1 03954U 69046D   22208.49919926  .00000000  00000-0  00000-0 0 14524
2 03954 065.1852 072.2670 8232578 137.9746 168.2410 00.21504302    05

# Worst residual: 3.96 km
# MJD 59788.000000 (2022 Jul 28  0:00)
1969-046D = NORAD 03954 = Vela 5a
1 03954U 69046D   22209.49919926  .00000000  00000-0  00000-0 0 14525
2 03954 065.2501 072.1982 8235885 137.9813 245.7854 00.21514905    04

# Worst residual: 32.23 km
# MJD 59789.000000 (2022 Jul 29  0:00)
1969-046D = NORAD 03954 = Vela 5a
1 03954U 69046D   22210.49919926  .00000000  00000-0  00000-0 0 14527
2 03954 065.3017 072.1383 8233056 138.0385 323.1983 00.21563179    07

# Worst residual: 36.34 km
# MJD 59790.000000 (2022 Jul 30  0:00)
1969-046D = NORAD 03954 = Vela 5a
1 03954U 69046D   22211.49919926  .00000000  00000-0  00000-0 0 14528
2 03954 065.3673 072.0695 8228910 137.9282 040.9154 00.21584190    07

# Worst residual: 6.36 km
# MJD 59791.000000 (2022 Jul 31  0:00)
1969-046D = NORAD 03954 = Vela 5a
1 03954U 69046D   22212.49919926  .00000000  00000-0  00000-0 0 14529
2 03954 065.4378 071.9836 8232206 138.0034 118.1368 00.21504255    04

# Worst residual: 4.09 km
# MJD 59792.000000 (2022 Aug  1  0:00)
1969-046D = NORAD 03954 = Vela 5a
1 03954U 69046D   22213.49919926  .00000000  00000-0  00000-0 0 14520
2 03954 065.4694 071.9516 8228933 138.0188 195.4681 00.21497093    09

# Worst residual: 6.33 km
# MJD 59793.000000 (2022 Aug  2  0:00)
1969-046D = NORAD 03954 = Vela 5a
1 03954U 69046D   22214.49919926  .00000000  00000-0  00000-0 0 14521
2 03954 065.4717 071.9296 8227887 138.0287 272.8532 00.21507943    08

# Worst residual: 21.73 km
# MJD 59794.000000 (2022 Aug  3  0:00)
1969-046D = NORAD 03954 = Vela 5a
1 03954U 69046D   22215.49919926  .00000000  00000-0  00000-0 0 14522
2 03954 065.5447 071.8698 8223071 138.0448 350.3142 00.21541068    09

# Worst residual: 4.91 km
# MJD 59795.000000 (2022 Aug  4  0:00)
1969-046D = NORAD 03954 = Vela 5a
1 03954U 69046D   22216.49919926  .00000000  00000-0  00000-0 0 14523
2 03954 065.6070 071.7792 8221915 138.0809 067.7834 00.21493977    04

# Worst residual: 3.91 km
# MJD 59796.000000 (2022 Aug  5  0:00)
1969-046D = NORAD 03954 = Vela 5a
1 03954U 69046D   22217.49919926  .00000000  00000-0  00000-0 0 14524
2 03954 065.6444 071.7494 8218642 138.0816 145.1859 00.21487877    09

# Worst residual: 8.12 km
# MJD 59797.000000 (2022 Aug  6  0:00)
1969-046D = NORAD 03954 = Vela 5a
1 03954U 69046D   22218.49919926  .00000000  00000-0  00000-0 0 14525
2 03954 065.6694 071.7210 8219889 138.0861 222.5327 00.21496055    04

# Worst residual: 26.31 km
# MJD 59798.000000 (2022 Aug  7  0:00)
1969-046D = NORAD 03954 = Vela 5a
1 03954U 69046D   22219.49919926  .00000000  00000-0  00000-0 0 14526
2 03954 065.7304 071.6599 8219053 138.1756 299.7443 00.21549811    03

# Worst residual: 38.68 km
# MJD 59799.000000 (2022 Aug  8  0:00)
1969-046D = NORAD 03954 = Vela 5a
1 03954U 69046D   22220.49919926  .00000000  00000-0  00000-0 0 14528
2 03954 065.8033 071.6009 8205776 138.0854 017.3635 00.21600984    00

# Worst residual: 5.38 km
# MJD 59800.000000 (2022 Aug  9  0:00)
1969-046D = NORAD 03954 = Vela 5a
1 03954U 69046D   22221.49919926  .00000000  00000-0  00000-0 0 14529
2 03954 065.8625 071.5467 8209717 138.0998 094.8179 00.21526898    06

# Worst residual: 4.84 km
# MJD 59801.000000 (2022 Aug 10  0:00)
1969-046D = NORAD 03954 = Vela 5a
1 03954U 69046D   22222.49919926  .00000000  00000-0  00000-0 0 14520
2 03954 065.9052 071.5054 8202321 138.1163 172.3135 00.21513815    01

# Worst residual: 6.33 km
# MJD 59802.000000 (2022 Aug 11  0:00)
1969-046D = NORAD 03954 = Vela 5a
1 03954U 69046D   22223.49919926  .00000000  00000-0  00000-0 0 14521
2 03954 065.9000 071.4949 8193715 138.0915 249.7930 00.21504544    07

# Worst residual: 32.82 km
# MJD 59803.000000 (2022 Aug 12  0:00)
1969-046D = NORAD 03954 = Vela 5a
1 03954U 69046D   22224.49919926  .00000000  00000-0  00000-0 0 14522
2 03954 065.9071 071.4604 8184993 138.1068 327.1288 00.21551748    06

# Worst residual: 36.69 km
# MJD 59804.000000 (2022 Aug 13  0:00)
1969-046D = NORAD 03954 = Vela 5a
1 03954U 69046D   22225.49919926  .00000000  00000-0  00000-0 0 14523
2 03954 065.9514 071.3817 8183530 137.9632 044.8290 00.21583910    05

# Worst residual: 3.57 km
# MJD 59805.000000 (2022 Aug 14  0:00)
1969-046D = NORAD 03954 = Vela 5a
1 03954U 69046D   22226.49919926  .00000000  00000-0  00000-0 0 14524
2 03954 066.0381 071.2585 8183066 138.0684 122.1060 00.21510262    08

# Worst residual: 4.18 km
# MJD 59806.000000 (2022 Aug 15  0:00)
1969-046D = NORAD 03954 = Vela 5a
1 03954U 69046D   22227.49919926  .00000000  00000-0  00000-0 0 14525
2 03954 066.0797 071.2140 8178875 138.0514 199.6879 00.21509135    04

# Worst residual: 5.59 km
# MJD 59807.000000 (2022 Aug 16  0:00)
1969-046D = NORAD 03954 = Vela 5a
1 03954U 69046D   22228.49919926  .00000000  00000-0  00000-0 0 14526
2 03954 066.1488 071.1471 8178920 138.0511 277.2654 00.21510423    02

# Worst residual: 18.50 km
# MJD 59808.000000 (2022 Aug 17  0:00)
1969-046D = NORAD 03954 = Vela 5a
1 03954U 69046D   22229.49919926  .00000000  00000-0  00000-0 0 14527
2 03954 066.2717 071.0763 8174196 138.0408 354.7571 00.21519068    00

# Worst residual: 6.09 km
# MJD 59809.000000 (2022 Aug 18  0:00)
1969-046D = NORAD 03954 = Vela 5a
1 03954U 69046D   22230.49919926  .00000000  00000-0  00000-0 0 14529
2 03954 066.3273 071.0115 8172184 138.0615 072.1922 00.21485222    09

# Worst residual: 7.63 km
# MJD 59810.000000 (2022 Aug 19  0:00)
1969-046D = NORAD 03954 = Vela 5a
1 03954U 69046D   22231.49919926  .00000000  00000-0  00000-0 0 14520
2 03954 066.3444 071.0122 8171700 137.9856 149.8427 00.21510748    09

# Worst residual: 4.36 km
# MJD 59811.000000 (2022 Aug 20  0:00)
1969-046D = NORAD 03954 = Vela 5a
1 03954U 69046D   22232.49919926  .00000000  00000-0  00000-0 0 14521
2 03954 066.3644 070.9872 8173539 137.9423 227.5368 00.21518955    09
